start=new Date('2023-03-03T00:00:00.000Z').valueOf();
sats=[{"OBJECT_TYPE":"PAYLOAD","TLE_LINE1":"1 46752U 20074P   23061.74707904  .00015887  00000-0  10830-2 0  9990","SITE":"AFETR","PERIOD":"95.592","BSTAR":"0.00108300000000","MEAN_MOTION_DOT":"0.00015887","REF_FRAME":"TEME","EPHEMERIS_TYPE":"0","RA_OF_ASC_NODE":"232.9199","EPOCH":"2023-03-02T17:55:47.629056","APOAPSIS":"547.637","COUNTRY_CODE":"US","SEMIMAJOR_AXIS":"6925.342","DECAY_DATE":null,"GP_ID":"227358328","MEAN_MOTION":"15.06402086","MEAN_ANOMALY":"237.5076","OBJECT_ID":"2020-074P","ELEMENT_SET_NO":"999","NORAD_CAT_ID":"46752","MEAN_ELEMENT_THEORY":"SGP4","FILE":"3849487","TLE_LINE2":"2 46752  53.0505 232.9199 0000620 122.5973 237.5076 15.06402086130439","LAUNCH_DATE":"2020-10-24","PERIAPSIS":"546.778","ECCENTRICITY":"0.00006200","MEAN_MOTION_DDOT":"0.0000000000000","RCS_SIZE":"LARGE","TIME_SYSTEM":"UTC","INCLINATION":"53.0505","OBJECT_NAME":"STARLINK-1921","REV_AT_EPOCH":"13043","CLASSIFICATION_TYPE":"U","ARG_OF_PERICENTER":"122.5973","CENTER_NAME":"EARTH"},{"APOAPSIS":"547.945","COUNTRY_CODE":"US","SEMIMAJOR_AXIS":"6925.341","RA_OF_ASC_NODE":"233.9633","EPOCH":"2023-03-02T12:21:23.166144","MEAN_ANOMALY":"266.8168","OBJECT_ID":"2020-074Q","GP_ID":"227359071","DECAY_DATE":null,"MEAN_MOTION":"15.06402582","OBJECT_TYPE":"PAYLOAD","SITE":"AFETR","TLE_LINE1":"1 46753U 20074Q   23061.51485146  .00003852  00000-0  27731-3 0  9995","PERIOD":"95.592","BSTAR":"0.00027731000000","REF_FRAME":"TEME","MEAN_MOTION_DOT":"0.00003852","EPHEMERIS_TYPE":"0","PERIAPSIS":"546.466","LAUNCH_DATE":"2020-10-24","TLE_LINE2":"2 46753  53.0507 233.9633 0001068  93.2944 266.8168 15.06402582130400","RCS_SIZE":"LARGE","OBJECT_NAME":"STARLINK-1922","INCLINATION":"53.0507","TIME_SYSTEM":"UTC","REV_AT_EPOCH":"13040","ECCENTRICITY":"0.00010680","MEAN_MOTION_DDOT":"0.0000000000000","CLASSIFICATION_TYPE":"U","ARG_OF_PERICENTER":"93.2944","CENTER_NAME":"EARTH","ELEMENT_SET_NO":"999","MEAN_ELEMENT_THEORY":"SGP4","NORAD_CAT_ID":"46753","FILE":"3849487"},{"MEAN_MOTION_DDOT":"0.0000000000000","ECCENTRICITY":"0.00011280","REV_AT_EPOCH":"13044","RCS_SIZE":"LARGE","INCLINATION":"53.0516","TIME_SYSTEM":"UTC","OBJECT_NAME":"STARLINK-1923","LAUNCH_DATE":"2020-10-24","TLE_LINE2":"2 46754  53.0516 232.7368 0001128 103.4092 256.7022 15.06404026130444","PERIAPSIS":"546.420","CENTER_NAME":"EARTH","ARG_OF_PERICENTER":"103.4092","CLASSIFICATION_TYPE":"U","NORAD_CAT_ID":"46754","MEAN_ELEMENT_THEORY":"SGP4","ELEMENT_SET_NO":"999","FILE":"3849487","MEAN_MOTION":"15.06404026","DECAY_DATE":null,"GP_ID":"227357327","OBJECT_ID":"2020-074R","MEAN_ANOMALY":"256.7022","EPOCH":"2023-03-02T18:54:09.008928","RA_OF_ASC_NODE":"232.7368","SEMIMAJOR_AXIS":"6925.336","COUNTRY_CODE":"US","APOAPSIS":"547.982","PERIOD":"95.592","BSTAR":"0.00034036000000","SITE":"AFETR","TLE_LINE1":"1 46754U 20074R   23061.78760427  .00004792  00000-0  34036-3 0  9993","OBJECT_TYPE":"PAYLOAD","EPHEMERIS_TYPE":"0","MEAN_MOTION_DOT":"0.00004792","REF_FRAME":"TEME"},{"ELEMENT_SET_NO":"999","MEAN_ELEMENT_THEORY":"SGP4","NORAD_CAT_ID":"46755","FILE":"3849487","PERIAPSIS":"546.391","TLE_LINE2":"2 46755  53.0519 237.7142 0001192  81.9947 278.1177 15.06399189130377","LAUNCH_DATE":"2020-10-24","REV_AT_EPOCH":"13037","RCS_SIZE":"LARGE","INCLINATION":"53.0519","OBJECT_NAME":"STARLINK-1924","TIME_SYSTEM":"UTC","MEAN_MOTION_DDOT":"0.0000000000000","ECCENTRICITY":"0.00011920","CENTER_NAME":"EARTH","ARG_OF_PERICENTER":"81.9947","CLASSIFICATION_TYPE":"U","OBJECT_TYPE":"PAYLOAD","PERIOD":"95.592","BSTAR":"0.00024178000000","SITE":"AFETR","TLE_LINE1":"1 46755U 20074S   23061.79267680  .00003322  00000-0  24178-3 0  9992","REF_FRAME":"TEME","MEAN_MOTION_DOT":"0.00003322","EPHEMERIS_TYPE":"0","COUNTRY_CODE":"US","SEMIMAJOR_AXIS":"6925.351","APOAPSIS":"548.042","EPOCH":"2023-03-02T19:01:27.275520","RA_OF_ASC_NODE":"237.7142","OBJECT_ID":"2020-074S","MEAN_ANOMALY":"278.1177","MEAN_MOTION":"15.06399189","GP_ID":"227357577","DECAY_DATE":null},{"OBJECT_TYPE":"PAYLOAD","BSTAR":"0.00065121000000","PERIOD":"95.592","SITE":"AFETR","TLE_LINE1":"1 46756U 20074T   23061.75586660  .00009433  00000-0  65121-3 0  9993","MEAN_MOTION_DOT":"0.00009433","REF_FRAME":"TEME","EPHEMERIS_TYPE":"0","EPOCH":"2023-03-02T18:08:26.874240","RA_OF_ASC_NODE":"238.2723","COUNTRY_CODE":"US","SEMIMAJOR_AXIS":"6925.330","APOAPSIS":"547.997","MEAN_MOTION":"15.06405969","DECAY_DATE":null,"GP_ID":"227358822","OBJECT_ID":"2020-074T","MEAN_ANOMALY":"251.4078","ELEMENT_SET_NO":"999","NORAD_CAT_ID":"46756","MEAN_ELEMENT_THEORY":"SGP4","FILE":"3849487","LAUNCH_DATE":"2020-10-24","TLE_LINE2":"2 46756  53.0525 238.2723 0001158 108.7037 251.4078 15.06405969130363","PERIAPSIS":"546.393","MEAN_MOTION_DDOT":"0.0000000000000","ECCENTRICITY":"0.00011580","REV_AT_EPOCH":"13036","RCS_SIZE":"LARGE","INCLINATION":"53.0525","OBJECT_NAME":"STARLINK-1925","TIME_SYSTEM":"UTC","ARG_OF_PERICENTER":"108.7037","CENTER_NAME":"EARTH","CLASSIFICATION_TYPE":"U"},{"ELEMENT_SET_NO":"999","NORAD_CAT_ID":"46757","MEAN_ELEMENT_THEORY":"SGP4","FILE":"3849487","LAUNCH_DATE":"2020-10-24","TLE_LINE2":"2 46757  53.0541 238.0533 0001068  85.8827 274.2284 15.06399421130368","PERIAPSIS":"546.476","MEAN_MOTION_DDOT":"0.0000000000000","ECCENTRICITY":"0.00010680","REV_AT_EPOCH":"13036","INCLINATION":"53.0541","RCS_SIZE":"LARGE","TIME_SYSTEM":"UTC","OBJECT_NAME":"STARLINK-1926","CENTER_NAME":"EARTH","ARG_OF_PERICENTER":"85.8827","CLASSIFICATION_TYPE":"U","OBJECT_TYPE":"PAYLOAD","PERIOD":"95.592","BSTAR":"0.00023990000000","TLE_LINE1":"1 46757U 20074U   23061.77058825  .00003294  00000-0  23990-3 0  9990","SITE":"AFETR","MEAN_MOTION_DOT":"0.00003294","REF_FRAME":"TEME","EPHEMERIS_TYPE":"0","EPOCH":"2023-03-02T18:29:38.824800","RA_OF_ASC_NODE":"238.0533","SEMIMAJOR_AXIS":"6925.350","COUNTRY_CODE":"US","APOAPSIS":"547.955","MEAN_MOTION":"15.06399421","DECAY_DATE":null,"GP_ID":"227358579","OBJECT_ID":"2020-074U","MEAN_ANOMALY":"274.2284"},{"OBJECT_ID":"2020-074V","MEAN_ANOMALY":"271.8160","MEAN_MOTION":"15.06397410","GP_ID":"227357821","DECAY_DATE":null,"SEMIMAJOR_AXIS":"6925.356","COUNTRY_CODE":"US","APOAPSIS":"547.986","EPOCH":"2023-03-02T18:34:54.906240","RA_OF_ASC_NODE":"237.7966","PERIOD":"95.592","BSTAR":"0.00018334000000","TLE_LINE1":"1 46758U 20074V   23061.77424660  .00002450  00000-0  18334-3 0  9994","SITE":"AFETR","OBJECT_TYPE":"PAYLOAD","EPHEMERIS_TYPE":"0","REF_FRAME":"TEME","MEAN_MOTION_DOT":"0.00002450","REV_AT_EPOCH":"13037","OBJECT_NAME":"STARLINK-1928","RCS_SIZE":"LARGE","INCLINATION":"53.0535","TIME_SYSTEM":"UTC","MEAN_MOTION_DDOT":"0.0000000000000","ECCENTRICITY":"0.00011040","PERIAPSIS":"546.457","TLE_LINE2":"2 46758  53.0535 237.7966 0001104  88.2956 271.8160 15.06397410130372","LAUNCH_DATE":"2020-10-24","CENTER_NAME":"EARTH","ARG_OF_PERICENTER":"88.2956","CLASSIFICATION_TYPE":"U","MEAN_ELEMENT_THEORY":"SGP4","NORAD_CAT_ID":"46758","ELEMENT_SET_NO":"999","FILE":"3849487"},{"MEAN_ELEMENT_THEORY":"SGP4","NORAD_CAT_ID":"46759","ELEMENT_SET_NO":"999","FILE":"3849487","RCS_SIZE":"LARGE","TIME_SYSTEM":"UTC","INCLINATION":"53.0495","OBJECT_NAME":"STARLINK-1833","REV_AT_EPOCH":"13023","ECCENTRICITY":"0.00005140","MEAN_MOTION_DDOT":"0.0000000000000","PERIAPSIS":"546.826","LAUNCH_DATE":"2020-10-24","TLE_LINE2":"2 46759  53.0495 247.5232 0000514  50.4043 309.6991 15.06410162130232","CLASSIFICATION_TYPE":"U","ARG_OF_PERICENTER":"50.4043","CENTER_NAME":"EARTH","TLE_LINE1":"1 46759U 20074W   23061.83598117  .00008446  00000-0  58507-3 0  9998","SITE":"AFETR","PERIOD":"95.591","BSTAR":"0.00058507000000","OBJECT_TYPE":"PAYLOAD","EPHEMERIS_TYPE":"0","REF_FRAME":"TEME","MEAN_MOTION_DOT":"0.00008446","MEAN_ANOMALY":"309.6991","OBJECT_ID":"2020-074W","GP_ID":"227358071","DECAY_DATE":null,"MEAN_MOTION":"15.06410162","APOAPSIS":"547.538","COUNTRY_CODE":"US","SEMIMAJOR_AXIS":"6925.317","RA_OF_ASC_NODE":"247.5232","EPOCH":"2023-03-02T20:03:48.773088"},{"OBJECT_TYPE":"PAYLOAD","TLE_LINE1":"1 46760U 20074X   23061.78069903  .00011788  00000-0  80866-3 0  9996","SITE":"AFETR","BSTAR":"0.00080866000000","PERIOD":"95.591","REF_FRAME":"TEME","MEAN_MOTION_DOT":"0.00011788","EPHEMERIS_TYPE":"0","APOAPSIS":"547.741","SEMIMAJOR_AXIS":"6925.311","COUNTRY_CODE":"US","RA_OF_ASC_NODE":"247.7714","EPOCH":"2023-03-02T18:44:12.396192","MEAN_ANOMALY":"255.5978","OBJECT_ID":"2020-074X","GP_ID":"227358329","DECAY_DATE":null,"MEAN_MOTION":"15.06412129","ELEMENT_SET_NO":"999","MEAN_ELEMENT_THEORY":"SGP4","NORAD_CAT_ID":"46760","FILE":"3849487","PERIAPSIS":"546.611","TLE_LINE2":"2 46760  53.0504 247.7714 0000816 104.5101 255.5978 15.06412129130232","LAUNCH_DATE":"2020-10-24","INCLINATION":"53.0504","RCS_SIZE":"LARGE","OBJECT_NAME":"STARLINK-1896","TIME_SYSTEM":"UTC","REV_AT_EPOCH":"13023","ECCENTRICITY":"0.00008160","MEAN_MOTION_DDOT":"0.0000000000000","CLASSIFICATION_TYPE":"U","CENTER_NAME":"EARTH","ARG_OF_PERICENTER":"104.5101"},{"CLASSIFICATION_TYPE":"U","ARG_OF_PERICENTER":"80.8411","CENTER_NAME":"EARTH","PERIAPSIS":"546.368","TLE_LINE2":"2 46764  53.0514 247.8040 0001194  80.8411 279.2713 15.06406234130230","LAUNCH_DATE":"2020-10-24","TIME_SYSTEM":"UTC","RCS_SIZE":"LARGE","INCLINATION":"53.0514","OBJECT_NAME":"STARLINK-1903","REV_AT_EPOCH":"13023","ECCENTRICITY":"0.00011940","MEAN_MOTION_DDOT":"0.0000000000000","FILE":"3849487","ELEMENT_SET_NO":"999","MEAN_ELEMENT_THEORY":"SGP4","NORAD_CAT_ID":"46764","APOAPSIS":"548.021","COUNTRY_CODE":"US","SEMIMAJOR_AXIS":"6925.329","RA_OF_ASC_NODE":"247.8040","EPOCH":"2023-03-02T18:33:35.373312","MEAN_ANOMALY":"279.2713","OBJECT_ID":"2020-074AB","GP_ID":"227359072","DECAY_DATE":null,"MEAN_MOTION":"15.06406234","REF_FRAME":"TEME","MEAN_MOTION_DOT":"0.00007821","EPHEMERIS_TYPE":"0","OBJECT_TYPE":"PAYLOAD","SITE":"AFETR","TLE_LINE1":"1 46764U 20074AB  23061.77332608  .00007821  00000-0  54329-3 0  9992","PERIOD":"95.592","BSTAR":"0.00054329000000"}];
